ONEWEB-0158             
1 48054U 21025N   24235.85105104 -.00000070  00000+0 -22610-3 0  9993
2 48054  87.8872  92.2241 0001773  77.0764 283.0563 13.13471080166550
ONEWEB-0157             
1 48055U 21025P   24235.87486513 -.00000200  00000+0 -58199-3 0  9998
2 48055  87.8869  92.2334 0001925  83.4339 276.7009 13.13470044166494
ONEWEB-0162             
1 48056U 21025Q   24235.83836243  .00000231  00000+0  59779-3 0  9991
2 48056  87.8869  92.2357 0001810  80.9617 279.1716 13.13470012166468
ONEWEB-0155             
1 48057U 21025R   24235.85898894 -.00000108  00000+0 -33150-3 0  9994
2 48057  87.8870  92.2428 0001753  90.5136 269.6194 13.13472998166604
ONEWEB-0149             
1 48058U 21025S   24235.87962514 -.00000007  00000+0 -54046-4 0  9994
2 48058  87.8868  92.2348 0001964  77.6723 282.4626 13.13472004166415
ONEWEB-0148             
1 48059U 21025T   24235.84472099  .00000059  00000+0  12691-3 0  9990
2 48059  87.8875  92.2545 0002380  79.3581 280.7816 13.13468957166534
ONEWEB-0160             
1 48060U 21025U   24235.86057359 -.00000372  00000+0 -10523-2 0  9993
2 48060  87.8876  92.2472 0001278  50.0091 310.1150 13.13469595166485
ONEWEB-0163             
1 48061U 21025V   24235.84629638  .00000008  00000+0 -13876-4 0  9998
2 48061  87.8872  92.2408 0001945  88.9406 271.1946 13.13467649166603
